start=new Date('2022-10-02T00:00:00.000Z').valueOf();
sats=[{"MEAN_MOTION_DDOT":"0.0000000000000","COUNTRY_CODE":"US","MEAN_MOTION":"15.11683568","GP_ID":"213945742","APOAPSIS":"533.036","RA_OF_ASC_NODE":"209.1673","BSTAR":"0.00134880000000","TLE_LINE2":"2 47669  53.0530 209.1673 0002850 119.5001 240.6274 15.11683568 92112","OBJECT_ID":"2021-012BB","SEMIMAJOR_AXIS":"6909.202","FILE":"3588593","PERIAPSIS":"529.098","EPOCH":"2022-10-01T05:48:46.841184","OBJECT_NAME":"STARLINK-2060","CENTER_NAME":"EARTH","MEAN_ANOMALY":"240.6274","NORAD_CAT_ID":"47669","EPHEMERIS_TYPE":"0","SITE":"AFETR","ECCENTRICITY":"0.00028500","RCS_SIZE":"LARGE","INCLINATION":"53.0530","MEAN_MOTION_DOT":"0.00023000","TLE_LINE1":"1 47669U 21012BB  22274.24220881  .00023000  00000-0  13488-2 0  9993","TIME_SYSTEM":"UTC","REF_FRAME":"TEME","PERIOD":"95.258","ARG_OF_PERICENTER":"119.5001","DECAY_DATE":null,"ELEMENT_SET_NO":"999","REV_AT_EPOCH":"9211","MEAN_ELEMENT_THEORY":"SGP4","OBJECT_TYPE":"PAYLOAD","LAUNCH_DATE":"2021-02-16","CLASSIFICATION_TYPE":"U"},{"MEAN_MOTION_DDOT":"0.0000000000000","COUNTRY_CODE":"US","MEAN_MOTION":"15.06395091","GP_ID":"213946495","APOAPSIS":"548.469","RA_OF_ASC_NODE":"287.2197","BSTAR":"0.00009895300000","TLE_LINE2":"2 47670  53.0553 287.2197 0001791  60.3874 299.7294 15.06395091 91044","OBJECT_ID":"2021-012BC","SEMIMAJOR_AXIS":"6925.364","FILE":"3588593","PERIAPSIS":"545.988","EPOCH":"2022-10-01T07:32:19.842720","OBJECT_NAME":"STARLINK-2062","CENTER_NAME":"EARTH","MEAN_ANOMALY":"299.7294","NORAD_CAT_ID":"47670","EPHEMERIS_TYPE":"0","SITE":"AFETR","ECCENTRICITY":"0.00017910","RCS_SIZE":"LARGE","MEAN_MOTION_DOT":"0.00001192","INCLINATION":"53.0553","TLE_LINE1":"1 47670U 21012BC  22274.31411855  .00001192  00000-0  98953-4 0  9996","TIME_SYSTEM":"UTC","REF_FRAME":"TEME","PERIOD":"95.592","ARG_OF_PERICENTER":"60.3874","DECAY_DATE":null,"ELEMENT_SET_NO":"999","REV_AT_EPOCH":"9104","MEAN_ELEMENT_THEORY":"SGP4","OBJECT_TYPE":"PAYLOAD","LAUNCH_DATE":"2021-02-16","CLASSIFICATION_TYPE":"U"},{"ARG_OF_PERICENTER":"69.2386","PERIOD":"95.592","DECAY_DATE":null,"ELEMENT_SET_NO":"999","REV_AT_EPOCH":"9112","REF_FRAME":"TEME","LAUNCH_DATE":"2021-02-16","CLASSIFICATION_TYPE":"U","MEAN_ELEMENT_THEORY":"SGP4","OBJECT_TYPE":"PAYLOAD","RCS_SIZE":"LARGE","SITE":"AFETR","EPHEMERIS_TYPE":"0","ECCENTRICITY":"0.00014040","TLE_LINE1":"1 47671U 21012BD  22274.76010058  .00003672  00000-0  26525-3 0  9996","TIME_SYSTEM":"UTC","INCLINATION":"53.0534","MEAN_MOTION_DOT":"0.00003672","BSTAR":"0.00026525000000","TLE_LINE2":"2 47671  53.0534 285.2036 0001404  69.2386 290.8753 15.06406650 91126","OBJECT_ID":"2021-012BD","SEMIMAJOR_AXIS":"6925.328","APOAPSIS":"548.165","RA_OF_ASC_NODE":"285.2036","MEAN_ANOMALY":"290.8753","NORAD_CAT_ID":"47671","FILE":"3588844","PERIAPSIS":"546.221","EPOCH":"2022-10-01T18:14:32.690112","CENTER_NAME":"EARTH","OBJECT_NAME":"STARLINK-2064","COUNTRY_CODE":"US","MEAN_MOTION_DDOT":"0.0000000000000","GP_ID":"213976924","MEAN_MOTION":"15.06406650"},{"SITE":"AFETR","EPHEMERIS_TYPE":"0","ECCENTRICITY":"0.00014810","RCS_SIZE":"LARGE","INCLINATION":"53.0537","MEAN_MOTION_DOT":"0.00004102","TLE_LINE1":"1 47672U 21012BE  22274.73890726  .00004102  00000-0  29401-3 0  9997","TIME_SYSTEM":"UTC","REF_FRAME":"TEME","ARG_OF_PERICENTER":"67.6444","PERIOD":"95.591","DECAY_DATE":null,"ELEMENT_SET_NO":"999","REV_AT_EPOCH":"9123","MEAN_ELEMENT_THEORY":"SGP4","OBJECT_TYPE":"PAYLOAD","LAUNCH_DATE":"2021-02-16","CLASSIFICATION_TYPE":"U","MEAN_MOTION_DDOT":"0.0000000000000","COUNTRY_CODE":"US","MEAN_MOTION":"15.06413947","GP_ID":"213977674","APOAPSIS":"548.196","RA_OF_ASC_NODE":"275.3220","BSTAR":"0.00029401000000","TLE_LINE2":"2 47672  53.0537 275.3220 0001481  67.6444 292.4702 15.06413947 91238","OBJECT_ID":"2021-012BE","SEMIMAJOR_AXIS":"6925.306","FILE":"3588844","PERIAPSIS":"546.145","EPOCH":"2022-10-01T17:44:01.587264","OBJECT_NAME":"STARLINK-2065","CENTER_NAME":"EARTH","NORAD_CAT_ID":"47672","MEAN_ANOMALY":"292.4702"},{"RCS_SIZE":"LARGE","EPHEMERIS_TYPE":"0","SITE":"AFETR","ECCENTRICITY":"0.00020150","TLE_LINE1":"1 47673U 21012BF  22274.45049747 -.00005360  00000-0 -34137-3 0  9997","TIME_SYSTEM":"UTC","MEAN_MOTION_DOT":"-0.00005360","INCLINATION":"53.0533","ARG_OF_PERICENTER":"59.6204","PERIOD":"95.594","DECAY_DATE":null,"ELEMENT_SET_NO":"999","REV_AT_EPOCH":"9055","REF_FRAME":"TEME","LAUNCH_DATE":"2021-02-16","CLASSIFICATION_TYPE":"U","MEAN_ELEMENT_THEORY":"SGP4","OBJECT_TYPE":"PAYLOAD","COUNTRY_CODE":"US","MEAN_MOTION_DDOT":"0.0000000000000","GP_ID":"213918827","MEAN_MOTION":"15.06377761","TLE_LINE2":"2 47673  53.0533 286.6193 0002015  59.6204 300.4984 15.06377761 90557","BSTAR":"-0.00034137000000","OBJECT_ID":"2021-012BF","SEMIMAJOR_AXIS":"6925.417","APOAPSIS":"548.677","RA_OF_ASC_NODE":"286.6193","MEAN_ANOMALY":"300.4984","NORAD_CAT_ID":"47673","FILE":"3588390","PERIAPSIS":"545.886","EPOCH":"2022-10-01T10:48:42.981408","OBJECT_NAME":"STARLINK-2066","CENTER_NAME":"EARTH"},{"TLE_LINE1":"1 47674U 21012BG  22274.72967920 -.00001405  00000-0 -75440-4 0  9999","TIME_SYSTEM":"UTC","INCLINATION":"53.0553","MEAN_MOTION_DOT":"-0.00001405","RCS_SIZE":"LARGE","EPHEMERIS_TYPE":"0","SITE":"AFETR","ECCENTRICITY":"0.00017380","LAUNCH_DATE":"2021-02-16","CLASSIFICATION_TYPE":"U","MEAN_ELEMENT_THEORY":"SGP4","OBJECT_TYPE":"PAYLOAD","DECAY_DATE":null,"PERIOD":"95.593","ARG_OF_PERICENTER":"57.9071","REV_AT_EPOCH":"9111","ELEMENT_SET_NO":"999","REF_FRAME":"TEME","GP_ID":"213976173","MEAN_MOTION":"15.06386728","COUNTRY_CODE":"US","MEAN_MOTION_DDOT":"0.0000000000000","NORAD_CAT_ID":"47674","MEAN_ANOMALY":"302.2086","PERIAPSIS":"546.051","FILE":"3588844","CENTER_NAME":"EARTH","OBJECT_NAME":"STARLINK-2067","EPOCH":"2022-10-01T17:30:44.282880","TLE_LINE2":"2 47674  53.0553 285.3442 0001738  57.9071 302.2086 15.06386728 91116","BSTAR":"-0.00007544000000","SEMIMAJOR_AXIS":"6925.389","OBJECT_ID":"2021-012BG","RA_OF_ASC_NODE":"285.3442","APOAPSIS":"548.458"},{"TIME_SYSTEM":"UTC","TLE_LINE1":"1 47675U 21012BH  22274.72324110  .00003109  00000-0  22750-3 0  9994","INCLINATION":"53.0534","MEAN_MOTION_DOT":"0.00003109","RCS_SIZE":"LARGE","ECCENTRICITY":"0.00015100","SITE":"AFETR","EPHEMERIS_TYPE":"0","CLASSIFICATION_TYPE":"U","LAUNCH_DATE":"2021-02-16","OBJECT_TYPE":"PAYLOAD","MEAN_ELEMENT_THEORY":"SGP4","REV_AT_EPOCH":"9111","ELEMENT_SET_NO":"999","DECAY_DATE":null,"PERIOD":"95.592","ARG_OF_PERICENTER":"76.0467","REF_FRAME":"TEME","GP_ID":"213977424","MEAN_MOTION":"15.06405757","COUNTRY_CODE":"US","MEAN_MOTION_DDOT":"0.0000000000000","MEAN_ANOMALY":"284.0690","NORAD_CAT_ID":"47675","OBJECT_NAME":"STARLINK-2078","CENTER_NAME":"EARTH","EPOCH":"2022-10-01T17:21:28.031040","PERIAPSIS":"546.150","FILE":"3588844","OBJECT_ID":"2021-012BH","SEMIMAJOR_AXIS":"6925.331","BSTAR":"0.00022750000000","TLE_LINE2":"2 47675  53.0534 285.3816 0001510  76.0467 284.0690 15.06405757 91112","RA_OF_ASC_NODE":"285.3816","APOAPSIS":"548.242"},{"RCS_SIZE":"LARGE","ECCENTRICITY":"0.00012760","SITE":"AFETR","EPHEMERIS_TYPE":"0","TIME_SYSTEM":"UTC","TLE_LINE1":"1 47676U 21012BJ  22274.45324134  .00003263  00000-0  23784-3 0  9990","INCLINATION":"53.0524","MEAN_MOTION_DOT":"0.00003263","ELEMENT_SET_NO":"999","REV_AT_EPOCH":"9209","ARG_OF_PERICENTER":"83.4246","PERIOD":"95.592","DECAY_DATE":null,"REF_FRAME":"TEME","CLASSIFICATION_TYPE":"U","LAUNCH_DATE":"2021-02-16","OBJECT_TYPE":"PAYLOAD","MEAN_ELEMENT_THEORY":"SGP4","COUNTRY_CODE":"US","MEAN_MOTION_DDOT":"0.0000000000000","GP_ID":"213919439","MEAN_MOTION":"15.06403119","OBJECT_ID":"2021-012BJ","SEMIMAJOR_AXIS":"6925.339","BSTAR":"0.00023784000000","TLE_LINE2":"2 47676  53.0524 176.5876 0001276  83.4246 276.6888 15.06403119 92099","APOAPSIS":"548.088","RA_OF_ASC_NODE":"176.5876","NORAD_CAT_ID":"47676","MEAN_ANOMALY":"276.6888","EPOCH":"2022-10-01T10:52:40.051776","OBJECT_NAME":"STARLINK-2083","CENTER_NAME":"EARTH","FILE":"3588417","PERIAPSIS":"546.320"},{"APOAPSIS":"548.521","RA_OF_ASC_NODE":"306.9273","TLE_LINE2":"2 47677  53.0553 306.9273 0001907  51.0172 309.0987 15.06404317 90777","BSTAR":"0.00013213000000","OBJECT_ID":"2021-012BK","SEMIMAJOR_AXIS":"6925.335","FILE":"3588593","PERIAPSIS":"545.880","EPOCH":"2022-10-01T09:03:50.147136","CENTER_NAME":"EARTH","OBJECT_NAME":"STARLINK-2090","MEAN_ANOMALY":"309.0987","NORAD_CAT_ID":"47677","MEAN_MOTION_DDOT":"0.0000000000000","COUNTRY_CODE":"US","MEAN_MOTION":"15.06404317","GP_ID":"213945743","REF_FRAME":"TEME","ARG_OF_PERICENTER":"51.0172","PERIOD":"95.592","DECAY_DATE":null,"ELEMENT_SET_NO":"999","REV_AT_EPOCH":"9077","MEAN_ELEMENT_THEORY":"SGP4","OBJECT_TYPE":"PAYLOAD","LAUNCH_DATE":"2021-02-16","CLASSIFICATION_TYPE":"U","SITE":"AFETR","EPHEMERIS_TYPE":"0","ECCENTRICITY":"0.00019070","RCS_SIZE":"LARGE","MEAN_MOTION_DOT":"0.00001687","INCLINATION":"53.0553","TLE_LINE1":"1 47677U 21012BK  22274.37766374  .00001687  00000-0  13213-3 0  9992","TIME_SYSTEM":"UTC"},{"ECCENTRICITY":"0.00017530","SITE":"AFETR","EPHEMERIS_TYPE":"0","RCS_SIZE":"LARGE","MEAN_MOTION_DOT":"0.00003277","INCLINATION":"53.0541","TIME_SYSTEM":"UTC","TLE_LINE1":"1 47679U 21012BM  22274.80522710  .00003277  00000-0  23873-3 0  9996","REF_FRAME":"TEME","REV_AT_EPOCH":"9085","ELEMENT_SET_NO":"999","DECAY_DATE":null,"PERIOD":"95.591","ARG_OF_PERICENTER":"54.9389","OBJECT_TYPE":"PAYLOAD","MEAN_ELEMENT_THEORY":"SGP4","CLASSIFICATION_TYPE":"U","LAUNCH_DATE":"2021-02-16","MEAN_MOTION_DDOT":"0.0000000000000","COUNTRY_CODE":"US","MEAN_MOTION":"15.06411961","GP_ID":"213976673","RA_OF_ASC_NODE":"305.0286","APOAPSIS":"548.391","SEMIMAJOR_AXIS":"6925.312","OBJECT_ID":"2021-012BM","TLE_LINE2":"2 47679  53.0541 305.0286 0001753  54.9389 305.1764 15.06411961 90853","BSTAR":"0.00023873000000","OBJECT_NAME":"STARLINK-2095","CENTER_NAME":"EARTH","EPOCH":"2022-10-01T19:19:31.621440","PERIAPSIS":"545.963","FILE":"3588844","NORAD_CAT_ID":"47679","MEAN_ANOMALY":"305.1764"}];
